IRIDIUM 36 [-]          
1 24967U 97056C   23297.45067406  .00000792  00000+0  26352-3 0  9998
2 24967  86.3960  65.6232 0002182  96.8443 263.3003 14.36467792365801
IRIDIUM 39 [-]          
1 25042U 97069D   23298.86736093  .00001010  00000+0  26920-3 0  9993
2 25042  86.3870 108.2482 0019578 143.9935 216.2591 14.47437953362336
IRIDIUM 38 [-]          
1 25043U 97069E   23298.57775771  .00000555  00000+0  18116-3 0  9999
2 25043  86.3926 125.6647 0000647   3.7919 356.3283 14.36928105359935
IRIDIUM 42 [-]          
1 25077U 97077A   23298.63104408  .00000495  00000+0  16640-3 0  9998
2 25077  86.3939 131.0802 0001469  82.6067 277.5296 14.35240632355028
IRIDIUM 44 [-]          
1 25078U 97077B   23298.59027766  .00000629  00000+0  19753-3 0  9992
2 25078  86.3911 114.6336 0002224 140.4838 219.6523 14.39032634357327
IRIDIUM 45 [-]          
1 25104U 97082A   23298.85085413  .00009897  00000+0  63291-3 0  9992
2 25104  86.3768 332.1235 0178746  11.9626 348.5762 14.96121831361842
IRIDIUM 24 [-]          
1 25105U 97082B   23298.62044778  .00000587  00000+0  17742-3 0  9994
2 25105  86.3916 334.6245 0009347 257.6925 102.3228 14.40792263356958
IRIDIUM 51 [-]          
1 25262U 98018A   23298.57137862  .00009446  00000+0  52327-3 0  9990
2 25262  86.3956 342.7523 0162376 326.9574  32.1592 15.02999847356159
